307P/LINEAR,e,4.4335,158.1458,222.1377,5.793474,0.0706798,0.67451352,158.9100,02/15.0/2021,2000,g 15.0,4.0
# From MPC109148
308P/Lagerkvist-Carsenty,e,4.8504,63.0907,333.5958,6.605179,0.0580600,0.36319320,122.6330,02/15.0/2021,2000,g 13.0,2.0
# From MPC 94284
309P/LINEAR,e,17.0232,10.1406,49.9652,4.371498,0.1078347,0.61761412,237.1849,02/15.0/2021,2000,g 15.0,4.0
# From MPC 98566
310P/Hill,e,13.1279,8.9252,31.8374,4.178155,0.1154057,0.42178845,246.6825,02/15.0/2021,2000,g 13.5,4.0
# From MPEC 2021-BE3
311P/PANSTARRS,e,4.9698,279.2277,144.5854,2.188814,0.3043624,0.11546852,39.7368,02/15.0/2021,2000,g 17.0,4.0
# From MPEC 2021-BE3
312P/NEAT,e,19.7684,144.6698,207.5348,3.466130,0.1527343,0.42780936,21.8406,02/15.0/2021,2000,g 16.0,4.0
# From MPEC 2021-BE3
313P/Gibbs,e,10.9831,105.9731,254.6632,3.162062,0.1752865,0.23494967,53.5725,02/15.0/2021,2000,g 15.0,4.0
# From MPC105243
314P/Montani,e,3.9796,267.6165,214.1631,7.271372,0.0502666,0.41604259,79.9614,02/15.0/2021,2000,g  9.5,4.0
# From MPC115888
315P/LONEOS,e,17.7733,68.9774,65.6810,4.939145,0.0897897,0.52175131,138.1156,02/15.0/2021,2000,g 11.0,4.0
# From MPC 92279
316P/LONEOS-Christensen,e,9.8552,246.6839,193.5095,4.357718,0.1083466,0.15811699,211.1142,02/15.0/2021,2000,g 13.5,4.0
# From MPEC 2020-C98
317P/WISE,e,11.9501,275.5161,334.9039,2.965429,0.1930069,0.57050442,27.3722,02/15.0/2021,2000,g 17.5,4.0
# From MPC102103
318P/McNaught-Hartley,e,17.8759,35.6058,313.1523,7.497606,0.0480087,0.67514793,93.1662,02/15.0/2021,2000,g  8.5,6.0
# From MPC 97499
319P/Catalina-McNaught,e,15.0951,111.3773,203.6419,3.567869,0.1462483,0.66660304,300.1228,02/15.0/2021,2000,g 15.0,4.0
# From MPC 96281
320P/McNaught,e,4.9089,295.9301,0.7756,3.094054,0.1810974,0.68576026,5.2262,02/15.0/2021,2000,g 20.5,4.0
# From MPC105243
321P/SOHO,e,20.0686,165.0285,172.7358,2.423322,0.2612688,0.98109419,0.0000,01/17.2836/2020,2000,g 20.0,4.0
# From MPC102103
322P/SOHO,e,11.4629,351.4905,56.9108,2.508062,0.2481400,0.97979158,0.0000,08/31.4520/2019,2000,g 19.0,4.0
# From MPEC 2016-Y36
323P/SOHO,e,5.3387,324.3750,353.0531,2.582044,0.2375519,0.98484279,0.0000,01/17.7618/2021,2000,g 20.0,4.0
# From MPC108598
324P/La Sagra,e,21.4095,270.6344,57.7248,3.097906,0.1807597,0.15474459,345.5021,02/15.0/2021,2000,g 13.0,4.0
# From MPC114609
325P/Yang-Gao,e,16.6961,257.5732,343.6878,3.523962,0.1489900,0.59359532,299.3418,02/15.0/2021,2000,g 14.0,4.0
# From MPC103849
326P/Hill,e,2.4708,99.8122,278.5861,4.063876,0.1203077,0.31756576,233.8026,02/15.0/2021,2000,g 13.5,4.0
# From MPC 97499
327P/Van Ness,e,36.2485,173.9788,185.0279,3.562499,0.1465790,0.56295274,277.2550,02/15.0/2021,2000,g 16.0,4.0
# From MPC109148
328P/LONEOS-Tucker,e,17.6714,341.6289,30.4815,4.195166,0.1147045,0.55194719,215.5496,02/15.0/2021,2000,g 14.5,4.0
# From MPC101101
329P/LINEAR-Catalina,e,21.6685,87.6795,343.5379,5.192034,0.0833101,0.67700816,158.6350,02/15.0/2021,2000,g 13.5,4.0
# From MPC105243
330P/Catalina,e,15.6941,293.0959,188.9797,6.630469,0.0577282,0.54840974,94.2907,02/15.0/2021,2000,g 12.0,4.0
# From MPEC 2021-BE3
331P/Gibbs,e,9.7389,216.7772,183.8200,3.003867,0.1893142,0.04082632,26.1280,02/15.0/2021,2000,g 12.0,4.0
# From MPEC 2016-K18
332P/Ikeya-Murakami,e,9.3799,3.7889,152.3501,3.088927,0.1815485,0.48945333,326.5159,02/15.0/2021,2000,g 18.0,4.0
# From MPEC 2016-EI8
332P-B/Ikeya-Murakami,e,9.3805,3.8028,152.3711,3.082329,0.1821317,0.48970701,359.9699,03/17.0/2016,2000,g 19.0,4.0
# From MPEC 2016-K18
332P-C/Ikeya-Murakami,e,9.3790,3.7893,152.3413,3.088893,0.1815514,0.48945879,326.5296,02/15.0/2021,2000,g 16.5,4.0
# From MPEC 2016-ED0
332P-D/Ikeya-Murakami,e,9.3761,3.7923,152.4393,3.081138,0.1822373,0.48977814,359.9486,03/17.0/2016,2000,g 19.0,4.0
# From MPEC 2016-ED0
332P-E/Ikeya-Murakami,e,9.3774,3.8228,152.2825,3.079877,0.1823493,0.48922008,359.9889,03/17.0/2016,2000,g 21.0,4.0
# From MPEC 2016-ED0
332P-F/Ikeya-Murakami,e,9.5293,3.4757,152.8203,3.163214,0.1751908,0.49918860,359.8501,03/17.0/2016,2000,g 21.0,4.0
# From MPEC 2016-ED0
332P-G/Ikeya-Murakami,e,9.2523,3.6955,154.4000,3.050519,0.1849880,0.49200362,359.9006,03/19.0/2016,2000,g 19.0,4.0
# From MPC100285
332P-H/Ikeya-Murakami,e,9.3795,3.7891,152.3421,3.089077,0.1815353,0.48949391,326.4675,02/15.0/2021,2000,g 19.0,4.0
# From MPEC 2016-ED0
332P-I/Ikeya-Murakami,e,9.3791,3.8048,152.3297,3.081767,0.1821815,0.48955490,359.9360,03/17.0/2016,2000,g 20.5,2.0
# From MPEC 2016-EI8
332P-J/Ikeya-Murakami,e,9.4296,3.6729,152.7712,3.115165,0.1792596,0.49429435,359.8613,03/17.0/2016,2000,g 20.5,2.0
# From MPEC 2020-L06
333P/LINEAR,e,131.9801,115.6254,26.0166,4.218960,0.1137355,0.73676086,202.6250,02/15.0/2021,2000,g 15.0,4.0
# From MPC115888
334P/NEAT,e,20.4461,90.6957,90.0235,6.838353,0.0551159,0.35219198,74.3182,02/15.0/2021,2000,g 10.5,4.0
# From MPC100285
335P/Gibbs,e,7.2931,330.8466,162.2504,3.578374,0.1456047,0.54564691,280.9169,02/15.0/2021,2000,g 17.0,4.0
# From MPC105244
336P/McNaught,e,17.8339,298.2277,308.7524,5.031689,0.0873240,0.44528279,128.6498,02/15.0/2021,2000,g 13.5,4.0
# From MPC115888
337P/WISE,e,15.3728,106.0708,160.9939,3.287399,0.1653581,0.49683715,277.1478,02/15.0/2021,2000,g 17.0,4.0
# From MPC104796
338P/McNaught,e,25.3765,9.7884,4.3973,3.897553,0.1280903,0.41130632,197.9362,02/15.0/2021,2000,g 12.0,4.0
# From MPC101101
339P/Gibbs,e,5.7344,172.7376,27.5205,3.696245,0.1386957,0.63566218,231.4161,02/15.0/2021,2000,g 17.0,4.0
# From MPC102957
340P/Boattini,e,2.0795,291.7252,35.8234,4.251344,0.1124384,0.28072771,174.0209,02/15.0/2021,2000,g 13.0,4.0
# From MPEC 2021-BE3
341P/Gibbs,e,3.7953,29.9849,312.1367,4.293818,0.1107742,0.41536494,190.8767,02/15.0/2021,2000,g 12.5,4.0
# From MPC101101
342P/SOHO,e,11.6716,27.9925,73.0083,3.043491,0.1856291,0.98284781,0.0000,10/19.2685/2021,2000,g  9.0,4.0
# From MPC109148
343P/NEAT-LONEOS,e,5.5839,257.2175,137.3712,5.460901,0.0772338,0.58405266,114.2169,02/15.0/2021,2000,g 14.0,4.0
# From MPC109148
344P/Read,e,3.4906,273.1810,140.3867,4.866350,0.0918119,0.42176221,143.9036,02/15.0/2021,2000,g 13.0,4.0
# From MPC109148
345P/LINEAR,e,2.7269,154.5026,196.3740,4.039296,0.1214075,0.22088506,203.1902,02/15.0/2021,2000,g 12.0,4.0
# From MPC110086
346P/Catalina,e,22.1860,102.4674,335.9904,4.476075,0.1040778,0.50231528,152.2073,02/15.0/2021,2000,g 14.0,4.0
# From MPC108599
347P/PANSTARRS,e,11.7488,261.0359,98.3174,3.606510,0.1439041,0.38562748,232.6202,02/15.0/2021,2000,g 15.0,4.0
# From MPEC 2020-SI8
348P/PANSTARRS,e,17.7406,312.9421,135.5781,3.151189,0.1761945,0.30669969,296.1618,02/15.0/2021,2000,g 14.0,4.0
# From MPC112394
349P/Lemmon,e,5.4909,331.7444,256.0516,3.572761,0.1459480,0.29914242,185.2501,02/15.0/2021,2000,g 14.0,4.0
# From MPC111775
350P/McNaught,e,7.3567,65.3523,140.3839,4.093127,0.1190203,0.09125539,137.6840,02/15.0/2021,2000,g 14.0,4.0
# From MPC105244
351P/Wiegert-PANSTARRS,e,12.7891,283.4493,352.6530,4.437322,0.1054442,0.29596804,201.9251,02/15.0/2021,2000,g 12.5,4.0
# From MPC110086
352P/Skiff,e,21.0089,28.0770,309.1688,6.636683,0.0576471,0.61820467,76.8769,02/15.0/2021,2000,g 11.5,4.0
# From MPEC 2020-AA5
353P/McNaught,e,28.4250,121.5627,230.3776,4.171345,0.1156884,0.47004351,133.1944,02/15.0/2021,2000,g 14.5,4.0
# From MPC105545
354P/LINEAR,e,5.2556,320.1295,132.9957,2.289762,0.2844583,0.12566112,83.5390,02/15.0/2021,2000,g 15.5,4.0
# From MPEC 2020-AA5
355P/LINEAR-NEAT,e,11.0380,51.4352,336.2494,3.472141,0.1523379,0.50703971,186.0165,02/15.0/2021,2000,g 15.5,2.0
# From MPC109148
356P/WISE,e,9.6364,160.7922,226.0072,4.160137,0.1161563,0.35485493,134.2517,02/15.0/2021,2000,g 14.0,4.0
# From MPC114609
357P/Hill,e,6.3108,44.5743,1.4055,4.461140,0.1046009,0.43465572,103.8810,02/15.0/2021,2000,g 15.5,4.0
# From MPEC 2020-HN5
358P/PANSTARRS,e,11.0575,85.7105,299.7274,3.148005,0.1764619,0.23829646,183.5979,02/15.0/2021,2000,g 18.0,4.0
# From MPC110086
359P/LONEOS,e,10.2664,149.7564,200.1441,4.639569,0.0986251,0.32402758,125.6115,02/15.0/2021,2000,g 13.5,4.0
# From MPC108599
360P/WISE,e,24.1016,2.1908,354.1204,3.702533,0.1383425,0.49879017,176.4866,02/15.0/2021,2000,g 19.5,6.0
# From MPC114609
361P/Spacewatch,e,13.8901,203.2513,219.0745,4.939453,0.0897813,0.43793043,86.0874,02/15.0/2021,2000,g 12.0,4.0
# From MPEC 2017-V13
362P/,e,15.5572,192.5758,53.6987,3.968405,0.1246752,0.27962090,204.0207,02/15.0/2021,2000,g 12.9,2.0
# From MPC114609
363P/Lemmon,e,5.3633,147.0954,341.1509,3.540414,0.1479527,0.53022624,158.7161,02/15.0/2021,2000,g 17.5,4.0
# From MPC114609
364P/PANSTARRS,e,12.1423,46.1985,211.9988,2.879113,0.2017511,0.72231024,195.0238,02/15.0/2021,2000,g 17.0,2.0
# From MPC111775
365P/PANSTARRS,e,9.8307,87.3329,66.2575,3.177112,0.1740425,0.57635398,191.2995,02/15.0/2021,2000,g 17.0,4.0
# From MPC114610
366P/Spacewatch,e,8.8592,70.7568,153.1524,3.495617,0.1508059,0.34836236,141.7783,02/15.0/2021,2000,g 15.0,4.0
# From MPC112395
367P/Catalina,e,8.4629,58.7192,172.9162,3.505453,0.1501716,0.28036532,145.6546,02/15.0/2021,2000,g 17.5,2.0
# From MPC114610
368P/NEAT,e,15.4821,257.9539,118.7827,5.526825,0.0758561,0.62631081,67.0934,02/15.0/2021,2000,g 14.0,4.0
# From MPC114610
369P/Hill,e,10.3125,47.2985,13.1922,4.384986,0.1073376,0.55431124,91.6573,02/15.0/2021,2000,g 15.0,4.0
# From MPC114610
370P/NEAT,e,19.4026,55.1257,356.6884,6.435597,0.0603699,0.61449000,59.2554,02/15.0/2021,2000,g 13.0,4.0
# From MPC114610
371P/LINEAR-Skiff,e,17.3773,67.3096,308.4558,4.181205,0.1152794,0.47654234,99.6209,02/15.0/2021,2000,g 16.0,4.0
# From MPEC 2020-K19
372P/McNaught,e,9.5100,325.8164,27.2448,4.503784,0.1031188,0.15267539,87.3870,02/15.0/2021,2000,g 13.5,4.0
# From MPC114610
373P/Rinner,e,13.7603,231.9484,221.1204,3.804190,0.1328344,0.39216458,90.0856,02/15.0/2021,2000,g 14.5,4.0
# From MPC114610
374P/Larson,e,10.7624,7.9124,51.5084,4.974268,0.0888404,0.46242351,68.0801,02/15.0/2021,2000,g 14.0,4.0
# From MPC114610
375P/Hill,e,17.3612,359.9433,119.4711,5.557713,0.0752246,0.65863981,59.1939,02/15.0/2021,2000,g 16.0,4.0
# From MPEC 2020-W26
